FENGYUN 3B              
1 37214U 10059A   24162.85349831  .00000256  00000+0  15719-3 0  9996
2 37214  99.0548 190.8579 0023221 109.8524  10.9124 14.14505307703357
SUOMI NPP               
1 37849U 11061A   24162.83987914  .00000206  00000+0  11812-3 0  9997
2 37849  98.7221 100.9153 0000693  64.2340 295.8907 14.19581328653969
FENGYUN 2F              
1 38049U 12002A   24162.58367358 -.00000358  00000+0  00000+0 0  9994
2 38049   5.5790  73.1997 0002555  87.9085  60.4020  1.00261980 45493
METEOSAT-10 (MSG-3)     
1 38552U 12035B   24162.28501608 -.00000005  00000+0  00000+0 0  9993
2 38552   2.9510  60.9450 0001618 291.8776   9.1988  1.00277503 43469
METOP-B                 
1 38771U 12049A   24162.83842508  .00000299  00000+0  15630-3 0  9992
2 38771  98.6274 220.2043 0001746  80.3554 279.7821 14.21550650608649
INSAT-3D                
1 39216U 13038B   24162.58757486 -.00000156  00000+0  00000+0 0  9992
2 39216   0.0214  86.6347 0000936 179.3282 287.0889  1.00271442 39694
FENGYUN 3C              
1 39260U 13052A   24162.87905858  .00000238  00000+0  14075-3 0  9998
2 39260  98.4280 162.8201 0010843 352.1351   7.9653 14.16215418554433
METEOR-M 2              
1 40069U 14037A   24162.83409192  .00000303  00000+0  15898-3 0  9994
2 40069  98.4359 157.3562 0006279  28.4396 331.7123 14.20977033514729
HIMAWARI-8              
1 40267U 14060A   24162.59919444 -.00000276  00000+0  00000+0 0  9994
2 40267   0.0624 123.3713 0000749 330.7649 161.6737  1.00270753 35379
FENGYUN 2G              
1 40367U 14090A   24162.57926171 -.00000304  00000+0  00000+0 0  9993
2 40367   3.7750  81.6098 0002922 116.1910   9.8840  1.00273636 34611
METEOSAT-11 (MSG-4)     
1 40732U 15034A   24162.28684355  .00000063  00000+0  00000+0 0  9992
2 40732   1.3697  68.9404 0001673 153.0086 149.8126  1.00276903   453
ELEKTRO-L 2             
1 41105U 15074A   24162.63989297 -.00000117  00000+0  00000+0 0  9994
2 41105   4.8265  79.5454 0000720 176.3070 219.5265  1.00272086 31139
INSAT-3DR               
1 41752U 16054A   24162.58592142 -.00000077  00000+0  00000+0 0  9999
2 41752   0.0877  95.4165 0010456 174.7184 274.1987  1.00271843 28432
HIMAWARI-9              
1 41836U 16064A   24162.59919444 -.00000275  00000+0  00000+0 0  9992
2 41836   0.0317 225.0296 0000913 240.0797 150.7920  1.00273196 27825
GOES 16                 
1 41866U 16071A   24162.55628667 -.00000248  00000+0  00000+0 0  9993
2 41866   0.0641 256.4624 0000213 129.2432 358.7430  1.00272563 27719
FENGYUN 4A              
1 41882U 16077A   24162.44540616 -.00000203  00000+0  00000+0 0  9993
2 41882   0.4423  85.4679 0007960 343.2488  77.9520  1.00269677 27547
CYGFM05                 
1 41884U 16078A   24162.21610135  .00012358  00000+0  45619-3 0  9997
2 41884  34.9542 345.2175 0011026 134.6405 225.5210 15.26891237415016
CYGFM04                 
1 41885U 16078B   24162.73076272  .00011772  00000+0  42267-3 0  9998
2 41885  34.9455 326.0931 0008497 163.7699 196.3289 15.27829591415345
CYGFM02                 
1 41886U 16078C   24162.75679433  .00012772  00000+0  45374-3 0  9992
2 41886  34.9539 328.1987 0011595 151.6865 208.4483 15.28136141415341
CYGFM01                 
1 41887U 16078D   24162.19730529  .00011791  00000+0  43945-3 0  9997
2 41887  34.9516 349.1601 0010725 119.8716 240.3066 15.26587078414942
CYGFM08                 
1 41888U 16078E   24162.67677104  .00011656  00000+0  42072-3 0  9990
2 41888  34.9514 334.3631 0011442 151.2327 208.9021 15.27632139415228
CYGFM07                 
1 41890U 16078G   24162.52463828  .00011457  00000+0  41000-3 0  9992
2 41890  34.9512 326.8035 0008232 160.2675 199.8360 15.27945887415166
CYGFM03                 
1 41891U 16078H   24162.49386584  .00011728  00000+0  42071-3 0  9992
2 41891  34.9510 328.1786 0009550 143.9831 216.1529 15.27851623415141
FENGYUN 3D              
1 43010U 17072A   24162.89133107  .00000254  00000+0  14266-3 0  9994
2 43010  98.9104 117.5091 0001913  32.5965 327.5328 14.19355395340528
NOAA 20 (JPSS-1)        
1 43013U 17073A   24162.85761507  .00000200  00000+0  11543-3 0  9991
2 43013  98.7063 100.8851 0000611 140.5089 219.6131 14.19595084340000
GOES 17                 
1 43226U 18022A   24162.62496295 -.00000090  00000+0  00000+0 0  9996
2 43226   0.0260 208.2552 0000506 259.8728 271.6025  1.00272037 23036
FENGYUN 2H              
1 43491U 18050A   24162.58696569 -.00000129  00000+0  00000+0 0  9995
2 43491   1.1269  87.3249 0001374  36.8151  65.8898  1.00270302 22052
METOP-C                 
1 43689U 18087A   24162.80627160  .00000298  00000+0  15643-3 0  9999
2 43689  98.7236 222.1576 0003228 103.1651 256.9887 14.21487719290217
GEO-KOMPSAT-2A          
1 43823U 18100A   24162.81142932 -.00000343  00000+0  00000+0 0  9994
2 43823   0.0558 120.3939 0001794 320.6138 239.0056  1.00270490 20270
METEOR-M2 2             
1 44387U 19038A   24162.89649363  .00000127  00000+0  75201-4 0  9998
2 44387  98.8262 132.0958 0001464  29.8083 330.3178 14.23892911256497
ARKTIKA-M 1             
1 47719U 21016A   24160.27937047  .00000118  00000+0  00000+0 0  9998
2 47719  63.1391 152.7962 6938289 268.7185  17.9394  2.00612179 23968
FENGYUN 3E              
1 49008U 21062A   24162.86379719  .00000059  00000+0  48344-4 0  9997
2 49008  98.7316 164.2281 0002612  67.1727 292.9725 14.19758025152097
GOES 18                 
1 51850U 22021A   24162.72896785  .00000097  00000+0  00000+0 0  9997
2 51850   0.0120 105.6549 0000246 289.5807 349.7466  1.00270725  8422
NOAA 21 (JPSS-2)        
1 54234U 22150A   24162.54005051  .00000226  00000+0  12825-3 0  9993
2 54234  98.7517 100.5119 0001540 116.2151 243.9183 14.19524451 82030
METEOSAT-12 (MTG-I1)    
1 54743U 22170C   24162.28484205 -.00000009  00000+0  00000+0 0  9991
2 54743   0.5014  39.8523 0001500  36.8475 284.4332  1.00272727  5586
TIANMU-1 03             
1 55973U 23039A   24162.82108441  .00011932  00000+0  50415-3 0  9992
2 55973  97.4689 313.4682 0008697 177.8255 182.3021 15.23361892 67882
TIANMU-1 04             
1 55974U 23039B   24162.87006241  .00011405  00000+0  48081-3 0  9994
2 55974  97.4610 313.0846 0009412 175.2358 184.8970 15.23444657 67888
TIANMU-1 05             
1 55975U 23039C   24162.78816318  .00011604  00000+0  48955-3 0  9990
2 55975  97.4658 313.3261 0007863 184.4580 175.6588 15.23426996 67869
TIANMU-1 06             
1 55976U 23039D   24162.83745807  .00012070  00000+0  50973-3 0  9992
2 55976  97.4672 313.4918 0007496 190.3767 169.7316 15.23384180 67873
METEOR-M2 3             
1 57166U 23091A   24162.86144746  .00000062  00000+0  46456-4 0  9991
2 57166  98.7129 217.5917 0004758 137.0311 223.1240 14.23898136 49726
TIANMU-1 07             
1 57399U 23101A   24162.82968961  .00008240  00000+0  41904-3 0  9998
2 57399  97.3627 220.1615 0004759 191.1536 168.9593 15.17084007 49464
TIANMU-1 08             
1 57400U 23101B   24162.86507147  .00007527  00000+0  38286-3 0  9996
2 57400  97.3615 220.0697 0006785 203.0108 157.0822 15.17096213 49468
TIANMU-1 09             
1 57401U 23101C   24162.84787096  .00008728  00000+0  44360-3 0  9992
2 57401  97.3569 219.8996 0007346 199.5049 160.5905 15.17072670 49464
TIANMU-1 10             
1 57402U 23101D   24162.81394863  .00007923  00000+0  40311-3 0  9994
2 57402  97.3651 220.1351 0009483 200.4804 159.6050 15.17052285 49451
FENGYUN 3F              
1 57490U 23111A   24162.81845506  .00000205  00000+0  11740-3 0  9997
2 57490  98.7698 232.0084 0001996 100.8193 259.3208 14.19824476 44362
ARKTIKA-M 2             
1 58584U 23198A   24158.51649634  .00000110  00000+0  00000+0 0  9991
2 58584  63.2555 236.8752 6991144 269.8718  17.1687  2.00610971  3454
TIANMU-1 11             
1 58645U 23205A   24162.84489680  .00006848  00000+0  36896-3 0  9992
2 58645  97.4027 188.0988 0013160  71.0739 289.1919 15.15041596 25552
TIANMU-1 12             
1 58646U 23205B   24162.86058237  .00007574  00000+0  40745-3 0  9990
2 58646  97.4014 188.0461 0011593  65.2163 295.0274 15.15077224 25545
TIANMU-1 13             
1 58647U 23205C   24162.82722025  .00008199  00000+0  44094-3 0  9995
2 58647  97.4041 188.0052 0011094  52.4130 307.8108 15.15069574 25536
TIANMU-1 14             
1 58648U 23205D   24162.81110080  .00008291  00000+0  44570-3 0  9999
2 58648  97.3969 187.8606 0011628  52.7171 307.5119 15.15074971 25534
TIANMU-1 19             
1 58660U 23208A   24162.88387029  .00008129  00000+0  43819-3 0  9997
2 58660  97.4112 275.4315 0009709  35.6780 324.5100 15.15003603 25211
TIANMU-1 20             
1 58661U 23208B   24162.89073331  .00008116  00000+0  42761-3 0  9998
2 58661  97.4040 275.4104 0010770  44.6990 315.5109 15.15801705 25220
TIANMU-1 21             
1 58662U 23208C   24162.88740425  .00008801  00000+0  45201-3 0  9996
2 58662  97.4078 275.6540 0010374  44.8954 315.3116 15.16683132 25230
TIANMU-1 22             
1 58663U 23208D   24162.83417912  .00008109  00000+0  43762-3 0  9995
2 58663  97.4099 275.4605 0006372  60.5342 299.6525 15.14982113 25218
TIANMU-1 15             
1 58700U 24004A   24162.80857360  .00007453  00000+0  40219-3 0  9999
2 58700  97.4623 344.0314 0011430  77.9963 282.2549 15.14977208 23801
TIANMU-1 16             
1 58701U 24004B   24162.85766498  .00008547  00000+0  46019-3 0  9995
2 58701  97.4551 343.9654 0011386  82.8675 277.3852 15.15012901 23816
TIANMU-1 17             
1 58702U 24004C   24162.84246852  .00008051  00000+0  43426-3 0  9991
2 58702  97.4597 344.0766 0009256  78.7572 281.4700 15.14989966 23806
TIANMU-1 18             
1 58703U 24004D   24162.82586100  .00007362  00000+0  39710-3 0  9998
2 58703  97.4612 344.1302 0008449  71.1457 289.0691 15.15024552 23809
